TEVEL2-7                
1 63238U 25052AE  26068.66113295  .00019244  00000+0  69668-3 0  9998
2 63238  97.4054 324.3041 0008105 124.6830 235.5175 15.28414096 54803
STARLINK-36470          
1 67319U 26002Q   26068.07931649  .00035815  00000+0  13044-2 0  9992
2 67319  43.0005 328.8750 0001863 264.6506  95.4133 15.27587547 11042
